[{"OBJECT_NAME":"STARLINK-3835","OBJECT_ID":"2022-049AB","EPOCH":"2026-03-09T22:37:47.727264","MEAN_MOTION":15.0883786,"ECCENTRICITY":0.00014517,"INCLINATION":53.218,"RA_OF_ASC_NODE":48.223,"ARG_OF_PERICENTER":85.3165,"MEAN_ANOMALY":274.7993,"EPHEMERIS_TYPE":0,"CLASSIFICATION_TYPE":"U","NORAD_CAT_ID":52476,"ELEMENT_SET_NO":999,"REV_AT_EPOCH":21366,"BSTAR":2.543137e-5,"MEAN_MOTION_DOT":1.17e-6,"MEAN_MOTION_DDOT":0},{"OBJECT_NAME":"SL-6 R\/B(2)","OBJECT_ID":"1990-055D","EPOCH":"2026-03-09T21:41:59.551872","MEAN_MOTION":15.03595553,"ECCENTRICITY":0.00247741,"INCLINATION":62.7825,"RA_OF_ASC_NODE":253.121,"ARG_OF_PERICENTER":347.1508,"MEAN_ANOMALY":12.8957,"EPHEMERIS_TYPE":0,"CLASSIFICATION_TYPE":"U","NORAD_CAT_ID":20666,"ELEMENT_SET_NO":999,"REV_AT_EPOCH":93822,"BSTAR":0.00020900577,"MEAN_MOTION_DOT":2.688e-5,"MEAN_MOTION_DDOT":0}]
